[{"OBJECT_NAME":"DELTA 2 R/B","OBJECT_ID":"1999-041E","EPOCH":"2026-03-06T01:02:57.250752","MEAN_MOTION":14.11825671,"ECCENTRICITY":0.05023565,"INCLINATION":51.764,"RA_OF_ASC_NODE":315.8429,"ARG_OF_PERICENTER":337.6757,"MEAN_ANOMALY":20.2978,"EPHEMERIS_TYPE":0,"CLASSIFICATION_TYPE":"U","NORAD_CAT_ID":25876,"ELEMENT_SET_NO":999,"REV_AT_EPOCH":36251,"BSTAR":0.00024926631,"MEAN_MOTION_DOT":1.313e-5,"MEAN_MOTION_DDOT":0},{"OBJECT_NAME":"HELIOS 1B","OBJECT_ID":"1999-064A","EPOCH":"2026-03-06T05:11:34.777536","MEAN_MOTION":14.87682252,"ECCENTRICITY":0.00024943,"INCLINATION":98.1699,"RA_OF_ASC_NODE":327.3579,"ARG_OF_PERICENTER":79.5565,"MEAN_ANOMALY":280.5931,"EPHEMERIS_TYPE":0,"CLASSIFICATION_TYPE":"U","NORAD_CAT_ID":25977,"ELEMENT_SET_NO":999,"REV_AT_EPOCH":68474,"BSTAR":0.00030732313,"MEAN_MOTION_DOT":2.74e-5,"MEAN_MOTION_DDOT":0},{"OBJECT_NAME":"TERRA","OBJECT_ID":"1999-068A","EPOCH":"2026-03-06T05:22:40.363392","MEAN_MOTION":14.61010573,"ECCENTRICITY":0.00024965,"INCLINATION":97.96,"RA_OF_ASC_NODE":118.7911,"ARG_OF_PERICENTER":159.7278,"MEAN_ANOMALY":270.0945,"EPHEMERIS_TYPE":0,"CLASSIFICATION_TYPE":"U","NORAD_CAT_ID":25994,"ELEMENT_SET_NO":999,"REV_AT_EPOCH":39457,"BSTAR":0.00013705483,"MEAN_MOTION_DOT":6.28e-6,"MEAN_MOTION_DDOT":0},{"OBJECT_NAME":"SL-16 R/B","OBJECT_ID":"2000-006B","EPOCH":"2026-03-06T06:25:51.051072","MEAN_MOTION":14.1582551,"ECCENTRICITY":0.00170342,"INCLINATION":71.0011,"RA_OF_ASC_NODE":105.0327,"ARG_OF_PERICENTER":194.9728,"MEAN_ANOMALY":165.0893,"EPHEMERIS_TYPE":0,"CLASSIFICATION_TYPE":"U","NORAD_CAT_ID":26070,"ELEMENT_SET_NO":999,"REV_AT_EPOCH":34807,"BSTAR":6.4813249e-5,"MEAN_MOTION_DOT":8.0e-7,"MEAN_MOTION_DDOT":0},{"OBJECT_NAME":"TITAN 4B R/B","OBJECT_ID":"2000-047B","EPOCH":"2026-03-06T06:01:34.407552","MEAN_MOTION":15.09520809,"ECCENTRICITY":0.00382722,"INCLINATION":67.9893,"RA_OF_ASC_NODE":50.1787,"ARG_OF_PERICENTER":39.4556,"MEAN_ANOMALY":320.9368,"EPHEMERIS_TYPE":0,"CLASSIFICATION_TYPE":"U","NORAD_CAT_ID":26474,"ELEMENT_SET_NO":999,"REV_AT_EPOCH":39239,"BSTAR":0.0003402643,"MEAN_MOTION_DOT":5.431e-5,"MEAN_MOTION_DDOT":0},{"OBJECT_NAME":"ENVISAT","OBJECT_ID":"2002-009A","EPOCH":"2026-03-06T07:05:29.432256","MEAN_MOTION":14.39035489,"ECCENTRICITY":0.00013287,"INCLINATION":98.3724,"RA_OF_ASC_NODE":18.9737,"ARG_OF_PERICENTER":84.3919,"MEAN_ANOMALY":85.2665,"EPHEMERIS_TYPE":0,"CLASSIFICATION_TYPE":"U","NORAD_CAT_ID":27386,"ELEMENT_SET_NO":999,"REV_AT_EPOCH":25868,"BSTAR":7.6885248e-5,"MEAN_MOTION_DOT":1.95e-6,"MEAN_MOTION_DDOT":0},{"OBJECT_NAME":"IDEFIX & ARIANE 42P R/B","OBJECT_ID":"2002-021B","EPOCH":"2026-03-06T06:42:32.465088","MEAN_MOTION":14.31023344,"ECCENTRICITY":0.00113755,"INCLINATION":98.5866,"RA_OF_ASC_NODE":3.9266,"ARG_OF_PERICENTER":192.4014,"MEAN_ANOMALY":167.6891,"EPHEMERIS_TYPE":0,"CLASSIFICATION_TYPE":"U","NORAD_CAT_ID":27422,"ELEMENT_SET_NO":999,"REV_AT_EPOCH":24353,"BSTAR":0.00017191248,"MEAN_MOTION_DOT":4.09e-6,"MEAN_MOTION_DDOT":0},{"OBJECT_NAME":"AQUA","OBJECT_ID":"2002-022A","EPOCH":"2026-03-06T06:29:40.658208","MEAN_MOTION":14.61967232,"ECCENTRICITY":5.963e-5,"INCLINATION":98.4171,"RA_OF_ASC_NODE":32.5734,"ARG_OF_PERICENTER":64.3076,"MEAN_ANOMALY":39.4624,"EPHEMERIS_TYPE":0,"CLASSIFICATION_TYPE":"U","NORAD_CAT_ID":27424,"ELEMENT_SET_NO":999,"REV_AT_EPOCH":26823,"BSTAR":0.00030942619,"MEAN_MOTION_DOT":1.501e-5,"MEAN_MOTION_DDOT":0},{"OBJECT_NAME":"CZ-4B R/B","OBJECT_ID":"2002-024C","EPOCH":"2026-03-06T02:31:40.079136","MEAN_MOTION":14.14546941,"ECCENTRICITY":0.00506527,"INCLINATION":98.8845,"RA_OF_ASC_NODE":118.5299,"ARG_OF_PERICENTER":34.3103,"MEAN_ANOMALY":354.9841,"EPHEMERIS_TYPE":0,"CLASSIFICATION_TYPE":"U","NORAD_CAT_ID":27432,"ELEMENT_SET_NO":999,"REV_AT_EPOCH":22873,"BSTAR":5.2573805e-5,"MEAN_MOTION_DOT":5.8e-7,"MEAN_MOTION_DDOT":0},{"OBJECT_NAME":"MIDORI II (ADEOS-II)","OBJECT_ID":"2002-056A","EPOCH":"2026-03-06T07:16:59.463264","MEAN_MOTION":14.29282029,"ECCENTRICITY":0.00017174,"INCLINATION":98.7766,"RA_OF_ASC_NODE":23.7577,"ARG_OF_PERICENTER":47.5145,"MEAN_ANOMALY":312.6182,"EPHEMERIS_TYPE":0,"CLASSIFICATION_TYPE":"U","NORAD_CAT_ID":27597,"ELEMENT_SET_NO":999,"REV_AT_EPOCH":20981,"BSTAR":0.00018922589,"MEAN_MOTION_DOT":4.36e-6,"MEAN_MOTION_DDOT":0},{"OBJECT_NAME":"H-2A R/B","OBJECT_ID":"2002-056E","EPOCH":"2026-03-06T07:23:03.996960","MEAN_MOTION":14.33758144,"ECCENTRICITY":0.00703006,"INCLINATION":98.3198,"RA_OF_ASC_NODE":25.8021,"ARG_OF_PERICENTER":170.6986,"MEAN_ANOMALY":353.1649,"EPHEMERIS_TYPE":0,"CLASSIFICATION_TYPE":"U","NORAD_CAT_ID":27601,"ELEMENT_SET_NO":999,"REV_AT_EPOCH":21362,"BSTAR":0.00014548459,"MEAN_MOTION_DOT":3.74e-6,"MEAN_MOTION_DDOT":0},{"OBJECT_NAME":"CZ-4B R/B","OBJECT_ID":"2003-049C","EPOCH":"2026-03-05T22:40:58.699776","MEAN_MOTION":14.55015715,"ECCENTRICITY":0.00471251,"INCLINATION":98.6876,"RA_OF_ASC_NODE":59.703,"ARG_OF_PERICENTER":242.5758,"MEAN_ANOMALY":117.0641,"EPHEMERIS_TYPE":0,"CLASSIFICATION_TYPE":"U","NORAD_CAT_ID":28059,"ELEMENT_SET_NO":999,"REV_AT_EPOCH":18605,"BSTAR":0.00012292925,"MEAN_MOTION_DOT":4.85e-6,"MEAN_MOTION_DDOT":0},{"OBJECT_NAME":"CZ-2C R/B","OBJECT_ID":"2004-012C","EPOCH":"2026-03-06T03:42:49.588704","MEAN_MOTION":15.64013937,"ECCENTRICITY":0.00132635,"INCLINATION":97.7238,"RA_OF_ASC_NODE":130.1132,"ARG_OF_PERICENTER":323.5364,"MEAN_ANOMALY":36.4989,"EPHEMERIS_TYPE":0,"CLASSIFICATION_TYPE":"U","NORAD_CAT_ID":28222,"ELEMENT_SET_NO":999,"REV_AT_EPOCH":20372,"BSTAR":0.00059125604,"MEAN_MOTION_DOT":0.00056169,"MEAN_MOTION_DDOT":0},{"OBJECT_NAME":"SL-16 R/B","OBJECT_ID":"2004-021B","EPOCH":"2026-03-05T22:06:47.721024","MEAN_MOTION":14.14599085,"ECCENTRICITY":0.00038228,"INCLINATION":70.9992,"RA_OF_ASC_NODE":240.4008,"ARG_OF_PERICENTER":16.5605,"MEAN_ANOMALY":343.5641,"EPHEMERIS_TYPE":0,"CLASSIFICATION_TYPE":"U","NORAD_CAT_ID":28353,"ELEMENT_SET_NO":999,"REV_AT_EPOCH":12230,"BSTAR":-8.0853622e-5,"MEAN_MOTION_DOT":-2.03e-6,"MEAN_MOTION_DDOT":0},{"OBJECT_NAME":"CZ-4B R/B","OBJECT_ID":"2004-035C","EPOCH":"2026-03-06T01:09:14.862816","MEAN_MOTION":15.28983649,"ECCENTRICITY":0.00313826,"INCLINATION":97.3498,"RA_OF_ASC_NODE":99.3339,"ARG_OF_PERICENTER":344.8011,"MEAN_ANOMALY":15.2283,"EPHEMERIS_TYPE":0,"CLASSIFICATION_TYPE":"U","NORAD_CAT_ID":28415,"ELEMENT_SET_NO":999,"REV_AT_EPOCH":17935,"BSTAR":0.00032262297,"MEAN_MOTION_DOT":9.141e-5,"MEAN_MOTION_DDOT":0},{"OBJECT_NAME":"CZ-2C R/B","OBJECT_ID":"2004-046B","EPOCH":"2026-03-06T06:14:32.775648","MEAN_MOTION":14.26990671,"ECCENTRICITY":0.01396894,"INCLINATION":98.1986,"RA_OF_ASC_NODE":340.4574,"ARG_OF_PERICENTER":164.5534,"MEAN_ANOMALY":195.9978,"EPHEMERIS_TYPE":0,"CLASSIFICATION_TYPE":"U","NORAD_CAT_ID":28480,"ELEMENT_SET_NO":999,"REV_AT_EPOCH":10801,"BSTAR":7.3645078e-5,"MEAN_MOTION_DOT":1.58e-6,"MEAN_MOTION_DDOT":0},{"OBJECT_NAME":"ARIANE 5 R/B","OBJECT_ID":"2004-049H","EPOCH":"2026-03-06T04:43:30.433728","MEAN_MOTION":14.85258408,"ECCENTRICITY":0.00841855,"INCLINATION":98.2619,"RA_OF_ASC_NODE":233.5232,"ARG_OF_PERICENTER":3.2639,"MEAN_ANOMALY":356.9106,"EPHEMERIS_TYPE":0,"CLASSIFICATION_TYPE":"U","NORAD_CAT_ID":28499,"ELEMENT_SET_NO":999,"REV_AT_EPOCH":14527,"BSTAR":0.00012557693,"MEAN_MOTION_DOT":1.083e-5,"MEAN_MOTION_DDOT":0}]
